OSCAR 7 (AO-7)          
1 07530U 74089B   26193.61067219 -.00000028  00000+0  11694-3 0  9990
2 07530 101.9904 207.1222 0012658  83.1626  33.3644 12.53698515363702
PHASE 3B (AO-10)        
1 14129U 83058B   26190.70523784  .00000106  00000+0  00000+0 0  9990
2 14129  25.9319 215.8523 6003352 121.8543 310.3469  2.05870648295953
UOSAT 2 (UO-11)         
1 14781U 84021B   26193.45805654  .00000812  00000+0  88055-4 0  9994
2 14781  97.8074 158.7535 0009190  99.0436 261.1822 14.90844987260893
LUSAT (LO-19)           
1 20442U 90005G   26193.29864192  .00000048  00000+0  33720-4 0  9998
2 20442  98.8847 215.7954 0012440 129.3206 230.9083 14.34130209905999
EYESAT A (AO-27)        
1 22825U 93061C   26193.17239583  .00000034  00000+0  29730-4 0  9998
2 22825  98.6869 260.5755 0008923  34.2140 325.9616 14.30948567710572
ITAMSAT (IO-26)         
1 22826U 93061D   26193.14435021  .00000030  00000+0  28178-4 0  9992
2 22826  98.6817 260.4674 0009149  18.0358 342.1148 14.31376147710882
RADIO ROSTO (RS15)      
1 23439U 94085A   26193.56974958 -.00000018  00000+0  69602-3 0  9996
2 23439  64.8160 262.1670 0156811 359.1907   0.8742 11.27583544298761
JAS-2 (FO-29)           
1 24278U 96046B   26193.52226945  .00000020  00000+0  54923-4 0  9992
2 24278  98.5221  38.9215 0350477  30.8650 331.2590 13.53275422476596
TECHSAT 1B (GO-32)      
1 25397U 98043D   26193.56255600  .00000019  00000+0  28421-4 0  9990
2 25397  99.0083 186.9628 0002119 118.5783 241.5609 14.24433030454940
ISS (ZARYA)             
1 25544U 98067A   26193.41162669  .00004782  00000+0  94926-4 0  9990
2 25544  51.6301 175.2558 0006698 286.7033  73.3220 15.48989885575660
PCSAT (NO-44)           
1 26931U 01043C   26193.44327055  .00000039  00000+0  45472-4 0  9997
2 26931  67.0492 178.9472 0005950 266.3908  93.6514 14.31964345294061
SAUDISAT 1C (SO-50)     
1 27607U 02058C   26192.83511488  .00000404  00000+0  65677-4 0  9997
2 27607  64.5517  52.7226 0074622 257.8961 101.3778 14.83094671268113
CUTE-1 (CO-55)          
1 27844U 03031E   26193.53707035  .00000153  00000+0  85274-4 0  9991
2 27844  98.6742 201.7775 0010779 109.4665 250.7680 14.24350488195289
CUBESAT XI-IV (CO-57)   
1 27848U 03031J   26193.53826736  .00000128  00000+0  75348-4 0  9998
2 27848  98.6772 201.4707 0010448 126.3839 233.8305 14.23633637194983
MOZHAETS 4 (RS22)       
1 27939U 03042A   26193.61137760  .00000136  00000+0  29282-4 0  9997
2 27939  98.3475  18.6901 0010991 181.4680 251.1164 14.73510128219296
CUBESAT XI-V            
1 28895U 05043F   26192.38715503  .00000804  00000+0  13420-3 0  9990
2 28895  98.3011 348.5214 0015131 126.3821 233.8784 14.72696464105311
CUTE-1.7+APD II (CO-65) 
1 32785U 08021C   26193.56979783  .00003132  00000+0  19855-3 0  9990
2 32785  97.8286 175.5222 0007259 310.1799  49.8793 15.09684862989021
SEEDS II (CO-66)        
1 32791U 08021J   26193.52388480  .00011335  00000+0  35129-3 0  9997
2 32791  97.7520 192.6480 0002793 162.8059 197.3278 15.33607267991170
YUBILEINY (RS30)        
1 32953U 08025A   26193.61001110  .00000046  00000+0  26003-3 0  9991
2 32953  82.5053 339.6247 0018565 254.9987 104.9038 12.43180808822855
KKS-1 (KISEKI)          
1 33499U 09002H   26193.48843013  .00000656  00000+0  87208-4 0  9996
2 33499  98.1177 116.3316 0007195 198.2505 161.8451 14.83185269939943
SWISSCUBE               
1 35932U 09051B   26193.20904170  .00000502  00000+0  10865-3 0  9990
2 35932  98.4012 101.5313 0007715 127.0520 233.1388 14.62527427892815
BEESAT-1                
1 35933U 09051C   26192.68394636  .00000417  00000+0  93456-4 0  9995
2 35933  98.3940 100.5811 0005925 139.0777 221.0870 14.61758535892766
ITUPSAT1                
1 35935U 09051E   26192.97035851  .00000388  00000+0  90106-4 0  9996
2 35935  98.4023 100.0372 0007861 152.4089 207.7529 14.60475983892353
XIWANG-1 (HOPE-1)       
1 36122U 09072B   26193.55158872 -.00000210  00000+0 -43460-3 0  9998
2 36122 100.4028 146.9796 0007468 170.7708 189.3544 13.16438509796341
O/OREOS (USA 219)       
1 37224U 10062C   26193.50978279  .00001141  00000+0  11326-3 0  9997
2 37224  71.9695  22.9729 0013813  10.3884 349.7569 14.93845301120428
JUGNU                   
1 37839U 11058B   26193.07075447  .00000355  00000+0  45779-4 0  9998
2 37839  19.9591 157.2468 0018467 351.9537  74.6963 14.13782974762554
SRMSAT                  
1 37841U 11058D   26193.23869166  .00000350  00000+0  45879-4 0  9994
2 37841  19.9714 267.8421 0011854 118.8974 271.3920 14.11580711761369
STRAND-1                
1 39090U 13009E   26193.46783720  .00000149  00000+0  64299-4 0  9999
2 39090  98.3932  13.0813 0009262 148.5894 211.5848 14.37177891700690
ZACUBE-1 (TSHEPISOSAT)  
1 39417U 13066B   26193.46865734  .00001312  00000+0  10483-3 0  9999
2 39417  97.8011 155.9308 0043870 163.9572 196.3053 15.01321493684529
GOMX-1                  
1 39430U 13066Q   26193.51576027  .00000868  00000+0  13667-3 0  9996
2 39430  97.6477  32.3804 0128529 356.8321   3.2058 14.69538877673637
